OBJECT_NAME,OBJECT_ID,EPOCH,MEAN_MOTION,ECCENTRICITY,INCLINATION,RA_OF_ASC_NODE,ARG_OF_PERICENTER,MEAN_ANOMALY,EPHEMERIS_TYPE,CLASSIFICATION_TYPE,NORAD_CAT_ID,ELEMENT_SET_NO,REV_AT_EPOCH,BSTAR,MEAN_MOTION_DOT,MEAN_MOTION_DDOT
BEIDOU-2 IGSO-5 (C10),2011-073A,2026-06-17T16:48:21.109248,1.00272773,.0113961,47.6768,271.5389,221.7300,116.5044,0,U,37948,999,5313,0,-.182E-5,0
LUCH 5A (SDCM/PRN 140),2011-074B,2026-06-17T12:18:38.642400,1.00270251,.0002279,8.7555,73.8025,25.9326,157.6332,0,U,37951,999,5305,0,-.59E-6,0
BEIDOU-2 G5 (C05),2012-008A,2026-06-17T18:22:47.417376,1.00271968,.0009093,3.5755,69.6927,272.6783,257.9943,0,U,38091,999,5237,0,.5E-6,0
BEIDOU-2 M3 (C11),2012-018A,2026-06-17T04:31:42.129120,1.86229716,.0020113,55.7579,304.8755,273.8659,85.8906,0,U,38250,999,9594,0,-.73E-6,0
BEIDOU-2 M4 (C12),2012-018B,2026-06-16T14:00:59.327136,1.86229375,.0011292,55.6586,304.1100,275.7806,84.0759,0,U,38251,999,9593,0,-.71E-6,0
SES-5 (EGNOS/PRN 136),2012-036A,2026-06-17T02:43:31.816416,1.00270066,.0001759,0.0486,314.5575,131.9060,224.7707,0,U,38652,999,4445,0,.3E-6,0
BEIDOU-2 M6 (C14),2012-050B,2026-06-17T08:49:28.586208,1.86230860,.0013681,56.5444,62.8883,357.4403,2.5943,0,U,38775,999,9331,0,-.52E-6,0
GSAT-10 (GAGAN/PRN 128),2012-051B,2026-06-17T09:56:28.523328,1.00269883,.000781,0.0798,262.4016,185.0028,50.3859,0,U,38779,999,5010,0,-.169E-5,0
GPS BIIF-3  (PRN 24),2012-053A,2026-06-17T19:33:14.697216,2.00567437,.0180336,53.5862,143.5736,65.7640,296.0730,0,U,38833,999,9945,0,.4E-6,0
GSAT0103 (GALILEO-FM3),2012-055A,2026-06-17T11:24:53.397792,1.70473345,.0004772,55.8068,101.5377,306.3432,53.5821,0,U,38857,999,8501,0,-.11E-6,0
BEIDOU-2 G6 (C02),2012-059A,2026-06-17T20:45:01.962720,1.00271808,.0009595,4.4232,73.5129,324.1649,263.7310,0,U,38953,999,4991,0,-.183E-5,0
LUCH 5B (SDCM/PRN 125),2012-061A,2026-06-17T09:27:52.106112,1.00272012,.0002525,10.4853,49.8784,152.6380,188.8250,0,U,38977,999,4960,0,-.147E-5,0
COSMOS 2485 (747),2013-019A,2026-06-16T21:50:24.393120,2.13103258,.0023135,65.4195,73.6140,234.1379,125.6814,0,U,39155,999,10227,0,-.2E-6,0
GPS BIIF-4  (PRN 27),2013-023A,2026-06-17T04:23:46.264704,2.00563399,.01415423,54.5040,268.9738,51.0481,310.2424,0,U,39166,999,9588,0,-.27E-6,0
IRNSS-1A,2013-034A,2026-06-09T14:20:49.169184,1.00272948,.00174117,35.7049,63.9797,184.2474,279.8453,0,U,39199,999,4729,0,.7E-6,0
GPS BIIF-5  (PRN 30),2014-008A,2026-06-17T16:24:04.675680,2.00559761,.0084228,53.6547,149.2994,231.2860,127.9302,0,U,39533,999,8969,0,.44E-6,0
ASTRA 5B (EGNOS/PRN 123),2014-011B,2026-06-16T23:23:29.474880,1.00272224,.00018632,0.0707,307.1426,147.0318,185.4434,0,U,39617,999,4466,0,.134E-5,0
COSMOS 2492 (754),2014-012A,2026-06-16T20:51:10.019808,2.13103188,.00104027,65.2979,313.9469,324.9131,35.0034,0,U,39620,999,9523,0,-.54E-6,0
IRNSS-1B,2014-017A,2026-06-17T18:21:55.001088,1.00276545,.002311,28.9211,240.3934,190.0096,166.2505,0,U,39635,999,4479,0,.118E-5,0
LUCH 5V (SDCM/PRN 141),2014-023A,2026-06-17T18:33:07.268256,1.00274166,.0001847,5.1342,69.7361,50.3215,158.9565,0,U,39727,999,4436,0,-.277E-5,0
GPS BIIF-6  (PRN 06),2014-026A,2026-06-16T23:04:52.888800,2.00560889,.00381679,56.4984,331.5261,326.5610,33.1892,0,U,39741,999,8853,0,-.84E-6,0
COSMOS 2500 (755),2014-032A,2026-06-17T12:11:21.313248,2.13105691,.0007352,65.2323,313.6727,184.6854,175.2946,0,U,40001,999,9346,0,-.54E-6,0
GPS BIIF-7  (PRN 09),2014-045A,2026-06-17T01:17:01.893696,2.00558324,.00332835,55.3532,88.4703,118.2771,242.0574,0,U,40105,999,8607,0,-.21E-6,0
GSAT0201 (GALILEO 5),2014-050A,2026-06-17T10:00:23.303232,1.85519962,.16745574,48.8753,273.4270,179.4035,180.8790,0,U,40128,999,7832,0,-.52E-6,0
GSAT0202 (GALILEO 6),2014-050B,2026-06-17T03:12:13.723488,1.85520514,.16757933,48.8923,272.5241,180.1173,179.8932,0,U,40129,999,8048,0,-.48E-6,0
IRNSS-1C,2014-061A,2026-06-17T18:29:45.091392,1.00269240,.002271,6.5191,88.9202,2.5065,175.0010,0,U,40269,999,4269,0,-.169E-5,0
GPS BIIF-8  (PRN 03),2014-068A,2026-06-16T22:09:45.635904,2.00576071,.00670513,56.9874,30.9648,70.5842,290.1982,0,U,40294,999,8520,0,-.73E-6,0
COSMOS 2501 (702K),2014-075A,2026-06-17T07:13:01.008768,2.13101233,.00226308,63.6163,190.3680,212.5057,147.4049,0,U,40315,999,8985,0,.63E-6,0
GPS BIIF-9  (PRN 26),2015-013A,2026-06-17T01:29:55.768128,2.00551338,.010952,53.1679,204.1827,40.1252,320.7503,0,U,40534,999,8182,0,.48E-6,0
GSAT0203 (GALILEO 7),2015-017A,2026-06-15T10:52:25.074336,1.70475984,.00020923,56.7863,341.6427,278.6810,81.2938,0,U,40544,999,6917,0,-.83E-6,0
GSAT0204 (GALILEO 8),2015-017B,2026-06-14T12:51:23.627232,1.70475571,.00019104,56.7953,341.6863,248.0709,111.9109,0,U,40545,999,3220,0,-.79E-6,0
